{
  "norad_id": 43245,
  "name": "BEIDOU-3 M9",
  "history": [
    {
      "epoch": "2026-03-27T07:56:29.226048",
      "apogee_km": 21531.121890684088,
      "perigee_km": 21525.59082370069,
      "latitude_deg": -23.682100981764595,
      "longitude_deg": -119.73419328010641,
      "semi_major_axis_km": 27906.49335719239,
      "eccentricity": 9.91e-05,
      "inclination_deg": 54.2677,
      "raan_deg": 302.8109,
      "arg_perigee_deg": 53.0238,
      "mean_anomaly_deg": 307.0215,
      "mean_motion_rev_day": 1.86227949
    }
  ]
}